STARLINK-36758
1 67926U 26036Y   26061.16668981 -.01404015  00000+0 -49884-2 0  9998
2 67926  42.9955 295.7831 0001837 272.6241 316.3569 15.90654180  2435
